[{"OBJECT_NAME":"CUBEBEL 2 (EU11S)","OBJECT_ID":"2023-091K","EPOCH":"2026-03-09T21:40:29.186112","MEAN_MOTION":15.26706784,"ECCENTRICITY":0.00118653,"INCLINATION":97.517,"RA_OF_ASC_NODE":131.3579,"ARG_OF_PERICENTER":105.889,"MEAN_ANOMALY":254.3657,"EPHEMERIS_TYPE":0,"CLASSIFICATION_TYPE":"U","NORAD_CAT_ID":57175,"ELEMENT_SET_NO":999,"REV_AT_EPOCH":14914,"BSTAR":0.00056688644,"MEAN_MOTION_DOT":0.00014859,"MEAN_MOTION_DDOT":0},{"OBJECT_NAME":"STARLINK-31750","OBJECT_ID":"2024-074U","EPOCH":"2026-03-09T02:22:20.214912","MEAN_MOTION":15.27567967,"ECCENTRICITY":0.00013507,"INCLINATION":43.0053,"RA_OF_ASC_NODE":346.8855,"ARG_OF_PERICENTER":260.2183,"MEAN_ANOMALY":99.8516,"EPHEMERIS_TYPE":0,"CLASSIFICATION_TYPE":"U","NORAD_CAT_ID":59552,"ELEMENT_SET_NO":999,"REV_AT_EPOCH":10592,"BSTAR":-7.2379796e-5,"MEAN_MOTION_DOT":-2.253e-5,"MEAN_MOTION_DDOT":0}]
